[{"OBJECT_NAME":"STARLINK-4429","OBJECT_ID":"2022-099AG","EPOCH":"2026-03-09T21:09:08.617536","MEAN_MOTION":15.01256619,"ECCENTRICITY":6.054e-5,"INCLINATION":97.6006,"RA_OF_ASC_NODE":190.4052,"ARG_OF_PERICENTER":159.7351,"MEAN_ANOMALY":200.3898,"EPHEMERIS_TYPE":0,"CLASSIFICATION_TYPE":"U","NORAD_CAT_ID":53495,"ELEMENT_SET_NO":999,"REV_AT_EPOCH":19601,"BSTAR":-5.1155937e-5,"MEAN_MOTION_DOT":-7.15e-6,"MEAN_MOTION_DDOT":0},{"OBJECT_NAME":"CZ-4B DEB","OBJECT_ID":"2006-046E","EPOCH":"2026-03-09T15:05:34.126944","MEAN_MOTION":15.05038248,"ECCENTRICITY":0.0035443,"INCLINATION":97.6504,"RA_OF_ASC_NODE":126.4986,"ARG_OF_PERICENTER":210.976,"MEAN_ANOMALY":148.9377,"EPHEMERIS_TYPE":0,"CLASSIFICATION_TYPE":"U","NORAD_CAT_ID":29509,"ELEMENT_SET_NO":999,"REV_AT_EPOCH":5351,"BSTAR":0.00027248,"MEAN_MOTION_DOT":3.86e-5,"MEAN_MOTION_DDOT":0}]
